NORAD_CAT_ID,OBJECT_NAME,OBJECT_TYPE,EPOCH,MEAN_MOTION,ECCENTRICITY,INCLINATION,RA_OF_ASC_NODE,ARG_OF_PERICENTER,MEAN_ANOMALY,BSTAR,MEAN_MOTION_DOT,MEAN_MOTION_DDOT,TLE_LINE0,TLE_LINE1,TLE_LINE2,SEMIMAJOR_AXIS,PERIOD,APOGEE,PERIGEE,DECAYED
54200.0,STARLINK-5250,PAYLOAD,2022-11-03 16:00:00,15.88116784,0.0019801,53.2174,111.4014,197.9768,124.0878,-0.004824,-0.01365546,0.00051963,0 STARLINK-5250,1 54200U 22141AV  22307.66667824 -.01365546  51963-3 -48240-2 0  9999,2 54200  53.2174 111.4014 0019801 197.9768 124.0878 15.88116784  1306,6685.7,90.673,320.803,294.327,0.0
54200.0,STARLINK-5250,PAYLOAD,2022-11-03 22:00:00,15.87442146,0.0017125,53.217,110.1385,204.604,107.2978,-0.0048537,-0.01323328,0.00048768,0 STARLINK-5250,1 54200U 22141AV  22307.91667824 -.01323328  48768-3 -48537-2 0  9997,2 54200  53.2170 110.1385 0017125 204.6040 107.2978 15.87442146  1302,6687.594,90.712,320.9120000000001,298.007,0.0
54200.0,STARLINK-5250,PAYLOAD,2022-11-04 06:00:00,15.86596884,0.0014199999999999,53.2176,108.4526,212.2474,205.17,-0.0052371,-0.01201618,0.0,0 STARLINK-5250,1 54200U 22141AV  22308.25001157 -.01201618  00000-0 -52371-2 0  9998,2 54200  53.2176 108.4526 0014200 212.2474 205.1700 15.86596884  1390,6689.969,90.76,321.334,302.334,0.0
54200.0,STARLINK-5250,PAYLOAD,2022-11-04 14:00:01,15.85704108,0.0011458,53.2176,106.7719,222.8379,299.0687,-0.0052756,-0.01158899,0.0,0 STARLINK-5250,1 54200U 22141AV  22308.58334491 -.01158899  00000-0 -52756-2 0  9993,2 54200  53.2176 106.7719 0011458 222.8379 299.0687 15.85704108  1304,6692.48,90.811,322.013,306.677,0.0
54200.0,STARLINK-5250,PAYLOAD,2022-11-04 22:00:01,15.84842989,0.0009163,53.2173,105.0941,246.8283,18.5788,-0.0055666,-0.01189302,0.0,0 STARLINK-5250,1 54200U 22141AV  22308.91668981 -.01189302  00000-0 -55666-2 0  9990,2 54200  53.2173 105.0941 0009163 246.8283  18.5788 15.84842989  1495,6694.904,90.861,322.903,310.634,0.0
54200.0,STARLINK-5250,PAYLOAD,2022-11-05 12:00:00,15.83329101,0.0005358,53.2167,102.1583,266.9705,86.8766,-0.0060408,-0.01194571,0.0,0 STARLINK-5250,1 54200U 22141AV  22309.50001157 -.01194571  00000-0 -60408-2 0  9996,2 54200  53.2167 102.1583 0005358 266.9705  86.8766 15.83329101  1592,6699.170999999999,90.948,324.625,317.446,0.0
54200.0,STARLINK-5250,PAYLOAD,2022-11-05 14:00:01,15.83132254,0.0004473,53.2171,101.7405,270.011,199.1353,-0.0062996,-0.01228912,0.0,0 STARLINK-5250,1 54200U 22141AV  22309.58335648 -.01228912  00000-0 -62996-2 0  9990,2 54200  53.2171 101.7405 0004473 270.0110 199.1353 15.83132254  1308,6699.726,90.959,324.588,318.594,0.0
54200.0,STARLINK-5250,PAYLOAD,2022-11-05 20:00:01,15.82476165,0.0002004,53.2177,100.4872,275.7006,178.7101,-0.0064503,-0.01218882,0.0,0 STARLINK-5250,1 54200U 22141AV  22309.83334491 -.01218882  00000-0 -64503-2 0  9994,2 54200  53.2177 100.4872 0002004 275.7006 178.7101 15.82476165  1644,6701.578,90.997,324.786,322.1,0.0
54200.0,STARLINK-5250,PAYLOAD,2022-11-05 22:00:01,15.82249323,0.0005124,53.2166,100.0691,270.3944,299.0638,-0.0063985,-0.01200941,0.0,0 STARLINK-5250,1 54200U 22141AV  22309.91668981 -.01200941  00000-0 -63985-2 0  9997,2 54200  53.2166 100.0691 0005124 270.3944 299.0638 15.82249323  1304,6702.218000000003,91.01,327.517,320.649,0.0
54200.0,STARLINK-5250,PAYLOAD,2022-11-06 14:00:01,15.8053856,0.0002326,53.2168,96.7286,291.526,115.3462,-0.0071825,-0.01237119,0.0,0 STARLINK-5250,1 54200U 22141AV  22310.58334491 -.01237119  00000-0 -71825-2 0  9997,2 54200  53.2168  96.7286 0002326 291.5260 115.3462 15.80538560  1301,6707.054,91.108,330.4790000000001,327.3590000000001,0.0
54200.0,STARLINK-5250,PAYLOAD,2022-11-06 22:00:00,15.79708885,8.18e-05,53.2163,95.0636,20.8703,123.1608,-0.0077773,-0.01281926,0.0,0 STARLINK-5250,1 54200U 22141AV  22310.91667824 -.01281926  00000-0 -77773-2 0  9996,2 54200  53.2163  95.0636 0000818  20.8703 123.1608 15.79708885  1818,6709.401999999999,91.156,331.816,330.718,0.0
54200.0,STARLINK-5250,PAYLOAD,2022-11-07 14:00:01,15.77907325,0.0001069,53.2171,91.7357,61.9184,273.3754,-0.0078062,-0.01196044,0.0,0 STARLINK-5250,1 54200U 22141AV  22311.58334491 -.01196044  00000-0 -78062-2 0  9999,2 54200  53.2171  91.7357 0001069  61.9184 273.3754 15.77907325  1928,6714.5080000000025,91.26,337.091,335.655,0.0
54200.0,STARLINK-5250,PAYLOAD,2022-11-07 22:00:00,15.77040097,0.0001171,53.2171,90.0767,51.5861,17.7574,-0.008117,-0.01196041,0.0,0 STARLINK-5250,1 54200U 22141AV  22311.91667824 -.01196041  00000-0 -81170-2 0  9996,2 54200  53.2171  90.0767 0001171  51.5861  17.7574 15.77040097  1302,6716.969,91.31,339.621,338.048,0.0
54200.0,STARLINK-5250,PAYLOAD,2022-11-08 06:00:00,15.76168915,0.0001438,53.2171,88.4169,44.8836,117.4699,-0.0083997,-0.01191188,0.0,0 STARLINK-5250,1 54200U 22141AV  22312.25001157 -.01191188  00000-0 -83997-2 0  9991,2 54200  53.2171  88.4169 0001438  44.8836 117.4699 15.76168915  2027,6719.444,91.361,342.275,340.343,0.0
54200.0,STARLINK-5250,PAYLOAD,2022-11-08 14:00:01,15.75303822,0.0001208,53.2168,86.7623,69.3777,184.9382,-0.0087547,-0.01194296,0.0,0 STARLINK-5250,1 54200U 22141AV  22312.58334491 -.01194296  00000-0 -87547-2 0  9995,2 54200  53.2168  86.7623 0001208  69.3777 184.9382 15.75303822  1305,6721.904,91.411,344.581,342.957,0.0
54200.0,STARLINK-5250,PAYLOAD,2022-11-08 22:00:00,15.74458028,0.0001294,53.2163,85.1098,41.6839,303.527,-0.0089588,-0.0117944,0.0,0 STARLINK-5250,1 54200U 22141AV  22312.91667824 -.01179440  00000-0 -89588-2 0  9992,2 54200  53.2163  85.1098 0001294  41.6839 303.5270 15.74458028  2131,6724.311,91.46,347.046,345.306,0.0
54200.0,STARLINK-5250,PAYLOAD,2022-11-09 04:00:00,15.73671589,0.0001448,53.2171,83.8693,56.6401,266.1081,-0.0044291,-0.00592272,0.0,0 STARLINK-5250,1 54200U 22141AV  22313.16667824 -.00592272  00000-0 -44291-2 0  9993,2 54200  53.2171  83.8693 0001448  56.6401 266.1081 15.73671589  2174,6726.551,91.506,349.39,347.44199999999995,0.0
54200.0,STARLINK-5250,PAYLOAD,2022-11-09 12:00:00,15.73130622,0.0001936,53.2141,82.2196,58.4471,353.4024,0.00091225,0.00129011,0.0,0 STARLINK-5250,1 54200U 22141AV  22313.50001157  .00129011  00000-0  91225-3 0  9997,2 54200  53.2141  82.2196 0001936  58.4471 353.4024 15.73130622  2222,6728.093000000003,91.537,351.261,348.655,0.0
54200.0,STARLINK-5250,PAYLOAD,2022-11-09 14:00:01,15.73172738,0.0001958,53.2139,81.8078,55.5427,108.5133,0.00061274,0.00086162,0.0,0 STARLINK-5250,1 54200U 22141AV  22313.58334491  .00086162  00000-0  61274-3 0  9995,2 54200  53.2139  81.8078 0001958  55.5427 108.5133 15.73172738  1308,6727.973000000001,91.535,351.155,348.521,0.0
54200.0,STARLINK-5250,PAYLOAD,2022-11-09 22:00:01,15.73247341,0.0001884,53.2134,80.1585,48.7002,204.3436,0.00033872,0.00047283,0.0,0 STARLINK-5250,1 54200U 22141AV  22313.91668981  .00047283  00000-0  33872-3 0  9990,2 54200  53.2134  80.1585 0001884  48.7002 204.3436 15.73247341  1303,6727.76,91.53,350.89300000000014,348.358,0.0
54200.0,STARLINK-5250,PAYLOAD,2022-11-10 06:00:00,15.73261555,0.0001533,53.2136,78.5071,50.5741,291.4154,-5.581e-05,-8.466e-05,0.0,0 STARLINK-5250,1 54200U 22141AV  22314.25001157 -.00008466  00000-0 -55810-4 0  9993,2 54200  53.2136  78.5071 0001533  50.5741 291.4154 15.73261555  2340,6727.72,91.53,350.616,348.55300000000005,0.0
54200.0,STARLINK-5250,PAYLOAD,2022-11-10 14:00:01,15.73235953,0.0001541,53.2166,76.8589,59.0501,11.9548,-0.00038863,-0.00054892,0.0,0 STARLINK-5250,1 54200U 22141AV  22314.58334491 -.00054892  00000-0 -38863-3 0  9991,2 54200  53.2166  76.8589 0001541  59.0501  11.9548 15.73235953  1305,6727.793000000002,91.531,350.694,348.621,0.0
54200.0,STARLINK-5250,PAYLOAD,2022-11-10 22:00:00,15.73261738,0.0001636,53.2141,75.2097,31.7416,128.2439,-0.0003394,-0.00048109,0.0,0 STARLINK-5250,1 54200U 22141AV  22314.91667824 -.00048109  00000-0 -33940-3 0  9992,2 54200  53.2141  75.2097 0001636  31.7416 128.2439 15.73261738  1303,6727.719,91.53,350.685,348.4840000000001,0.0
54200.0,STARLINK-5250,PAYLOAD,2022-11-11 14:00:01,15.73253321,0.0001797,53.2143,71.9104,34.0625,303.8566,-0.00072401,-0.00101254,0.0,0 STARLINK-5250,1 54200U 22141AV  22315.58334491 -.00101254  00000-0 -72401-3 0  9993,2 54200  53.2143  71.9104 0001797  34.0625 303.8566 15.73253321  2552,6727.743,91.53,350.81699999999995,348.399,0.0
54200.0,STARLINK-5250,PAYLOAD,2022-11-11 22:00:00,15.73217233,0.0001895,53.2139,70.2608,31.3421,35.5329,-0.00012838,-0.00018613,0.0,0 STARLINK-5250,1 54200U 22141AV  22315.91667824 -.00018613  00000-0 -12838-3 0  9993,2 54200  53.2139  70.2608 0001895  31.3421  35.5329 15.73217233  2605,6727.846,91.532,350.986,348.436,0.0
54200.0,STARLINK-5250,PAYLOAD,2022-11-12 14:00:01,15.73268784,0.0001907,53.2142,66.9621,31.4881,213.2605,-0.00039792,-0.00056263,0.0,0 STARLINK-5250,1 54200U 22141AV  22316.58334491 -.00056263  00000-0 -39792-3 0  9999,2 54200  53.2142  66.9621 0001907  31.4881 213.2605 15.73268784  2701,6727.699000000001,91.529,350.847,348.281,0.0
54200.0,STARLINK-5250,PAYLOAD,2022-11-12 22:00:00,15.7325386,0.0001926,53.2143,65.3121,27.7378,305.9875,-0.00086302,-0.00120311,0.0,0 STARLINK-5250,1 54200U 22141AV  22316.91667824 -.00120311  00000-0 -86302-3 0  9990,2 54200  53.2143  65.3121 0001926  27.7378 305.9875 15.73253860  1302,6727.7419999999975,91.53,350.902,348.311,0.0
54200.0,STARLINK-5250,PAYLOAD,2022-11-13 04:00:01,15.7316928,0.0001766,53.2144,64.0733,28.1931,282.3206,-0.00029024,-0.00041104,0.0,0 STARLINK-5250,1 54200U 22141AV  22317.16668981 -.00041104  00000-0 -29024-3 0  9993,2 54200  53.2144  64.0733 0001766  28.1931 282.3206 15.73169280  2804,6727.983,91.535,351.036,348.66,0.0
54200.0,STARLINK-5250,PAYLOAD,2022-11-13 14:00:01,15.7310423,0.0002105,53.2145,62.0133,26.9572,124.5837,-0.0001785,-0.00025496,0.0,0 STARLINK-5250,1 54200U 22141AV  22317.58334491 -.00025496  00000-0 -17850-3 0  9995,2 54200  53.2145  62.0133 0002105  26.9572 124.5837 15.73104230  1307,6728.168000000002,91.539,351.45,348.617,0.0
